OBJECT_NAME,OBJECT_ID,EPOCH,MEAN_MOTION,ECCENTRICITY,INCLINATION,RA_OF_ASC_NODE,ARG_OF_PERICENTER,MEAN_ANOMALY,EPHEMERIS_TYPE,CLASSIFICATION_TYPE,NORAD_CAT_ID,ELEMENT_SET_NO,REV_AT_EPOCH,BSTAR,MEAN_MOTION_DOT,MEAN_MOTION_DDOT
SAR-LUPE 2,2007-030A,2026-06-06T22:45:22.993056,15.48442908,.00088521,98.1027,261.1272,152.2441,207.9281,0,U,31797,999,5535,.31479479E-3,.16636E-3,0
SAPPHIRE,2013-009C,2026-06-06T18:35:01.887360,14.35237689,.00099874,98.4259,337.4777,281.4053,78.6011,0,U,39088,999,69508,.55757515E-4,.117E-5,0
PRAETORIAN SDA_602,2025-203A,2026-06-06T14:47:28.604256,13.84341989,.00052643,81.3038,20.5618,215.0347,145.0464,0,U,65565,999,3723,.29480349E-4,.45E-6,0
PRAETORIAN SDA_603,2025-203B,2026-06-06T20:33:25.556256,13.83903176,.0008942,81.3044,20.2482,217.3906,142.6630,0,U,65566,999,3727,.14769882E-3,.176E-5,0
PRAETORIAN SDA_604,2025-203C,2026-06-06T20:52:36.081120,13.83046668,.00047845,81.3060,20.6325,222.1854,137.8934,0,U,65567,999,3725,.94039298E-4,.115E-5,0
PRAETORIAN SDA_605,2025-203D,2026-06-06T14:54:23.461632,13.83433600,.0007549,81.3025,20.5357,213.3882,146.6799,0,U,65568,999,3723,.56652945E-4,.74E-6,0
PRAETORIAN SDA_606,2025-203E,2026-06-06T16:13:06.731904,13.83406555,.00051905,81.3062,20.7025,211.4461,148.6386,0,U,65569,999,3723,.56832572E-4,.74E-6,0
PRAETORIAN SDA_607,2025-203F,2026-06-06T14:50:10.846176,13.84283938,.00081536,81.3045,20.4350,218.2045,141.8535,0,U,65570,999,3724,.96989049E-4,.12E-5,0
PRAETORIAN SDA_608,2025-203G,2026-06-06T15:56:36.980160,13.83816093,.00052866,81.3013,20.5501,221.8944,138.1809,0,U,65571,999,3723,.66283796E-4,.85E-6,0
PRAETORIAN SDA_609,2025-203H,2026-06-06T16:08:23.250048,13.84284111,.00062484,81.3057,20.5279,214.7375,145.3374,0,U,65572,999,3724,.15421054E-3,.184E-5,0
PRAETORIAN SDA_610,2025-203J,2026-06-06T20:40:11.394336,13.83851187,.00059577,81.3014,20.3261,218.6804,141.3926,0,U,65573,999,3726,.36652728E-4,.52E-6,0
PRAETORIAN SDA_611,2025-203K,2026-06-06T20:35:29.098752,13.83307374,.0004923,81.3016,20.4855,225.6060,134.4694,0,U,65574,999,3725,.34817308E-4,.5E-6,0
PRAETORIAN SDA_612,2025-203L,2026-06-06T20:39:05.286240,13.85037729,.00086296,81.3037,20.0956,216.3908,143.6664,0,U,65575,999,3728,.11372388E-3,.14E-5,0
PRAETORIAN SDA_613,2025-203M,2026-06-06T20:39:21.100032,13.82764291,.00050449,81.3006,20.4729,213.8063,146.2772,0,U,65576,999,3725,.33273441E-4,.48E-6,0
PRAETORIAN SDA_614,2025-203N,2026-06-06T20:20:42.296064,13.84777737,.00065076,81.3020,20.1826,213.3337,146.7411,0,U,65577,999,3728,.50739378E-4,.69E-6,0
PRAETORIAN SDA_615,2025-203P,2026-06-06T16:15:36.308448,13.84435227,.00084242,81.3032,20.2980,215.5638,144.4958,0,U,65578,999,3725,.11289178E-3,.138E-5,0
PRAETORIAN SDA_616,2025-203Q,2026-06-06T20:33:54.466560,13.83266502,.00048021,81.3070,20.6256,223.5468,136.5309,0,U,65579,999,3725,.15018644E-3,.177E-5,0
PRAETORIAN SDA_617,2025-203R,2026-06-06T15:51:15.061536,13.83149989,.00067385,81.3044,20.6392,214.0869,145.9855,0,U,65580,999,3723,.58459689E-4,.76E-6,0
PRAETORIAN SDA_618,2025-203S,2026-06-06T20:41:25.382976,13.84668238,.00091311,81.3029,20.0605,217.5224,142.5297,0,U,65581,999,3728,.98502976E-4,.123E-5,0
PRAETORIAN SDA_619,2025-203T,2026-06-06T16:11:33.647136,13.83804926,.0007556,81.3053,20.5145,215.7786,144.2865,0,U,65582,999,3787,.10970606E-3,.133E-5,0
PRAETORIAN SDA_620,2025-203U,2026-06-06T15:05:41.045856,13.83617097,.00070565,81.3039,20.5764,210.9775,149.0966,0,U,65583,999,3723,.12496555E-3,.15E-5,0
PRAETORIAN SDA_621,2025-203V,2026-06-06T16:14:03.989184,13.83800553,.0006826,81.3027,20.4543,208.4031,151.6754,0,U,65584,999,3724,.69418063E-4,.89E-6,0
PRAETORIAN SDA_601,2025-203W,2026-06-06T15:24:50.762016,13.83170564,.00050324,81.3051,20.7741,223.3691,136.7070,0,U,65585,999,3722,.32254512E-2,.3545E-4,0
