SAR-LUPE 2              
1 31797U 07030A   26157.94818279  .00016636  00000+0  31479-3 0  9994
2 31797  98.1027 261.1272 0008852 152.2441 207.9281 15.48442908 55351
SAPPHIRE                
1 39088U 13009C   26157.77432740  .00000117  00000+0  55758-4 0  9998
2 39088  98.4259 337.4777 0009987 281.4053  78.6011 14.35237689695080
PRAETORIAN SDA_602      
1 65565U 25203A   26157.61630329  .00000045  00000+0  29480-4 0  9995
2 65565  81.3038  20.5618 0005264 215.0347 145.0464 13.84341989 37232
PRAETORIAN SDA_603      
1 65566U 25203B   26157.85654579  .00000176  00000+0  14770-3 0  9995
2 65566  81.3044  20.2482 0008942 217.3906 142.6630 13.83903176 37271
PRAETORIAN SDA_604      
1 65567U 25203C   26157.86986205  .00000115  00000+0  94039-4 0  9991
2 65567  81.3060  20.6325 0004784 222.1854 137.8934 13.83046668 37251
PRAETORIAN SDA_605      
1 65568U 25203D   26157.62110488  .00000074  00000+0  56653-4 0  9992
2 65568  81.3025  20.5357 0007549 213.3882 146.6799 13.83433600 37233
PRAETORIAN SDA_606      
1 65569U 25203E   26157.67577236  .00000074  00000+0  56833-4 0  9996
2 65569  81.3062  20.7025 0005190 211.4461 148.6386 13.83406555 37234
PRAETORIAN SDA_607      
1 65570U 25203F   26157.61818109  .00000120  00000+0  96989-4 0  9997
2 65570  81.3045  20.4350 0008153 218.2045 141.8535 13.84283938 37241
PRAETORIAN SDA_608      
1 65571U 25203G   26157.66431690  .00000085  00000+0  66284-4 0  9994
2 65571  81.3013  20.5501 0005286 221.8944 138.1809 13.83816093 37233
PRAETORIAN SDA_609      
1 65572U 25203H   26157.67249132  .00000184  00000+0  15421-3 0  9990
2 65572  81.3057  20.5279 0006248 214.7375 145.3374 13.84284111 37241
PRAETORIAN SDA_610      
1 65573U 25203J   26157.86124299  .00000052  00000+0  36653-4 0  9993
2 65573  81.3014  20.3261 0005957 218.6804 141.3926 13.83851187 37263
PRAETORIAN SDA_611      
1 65574U 25203K   26157.85797568  .00000050  00000+0  34817-4 0  9996
2 65574  81.3016  20.4855 0004923 225.6060 134.4694 13.83307374 37258
PRAETORIAN SDA_612      
1 65575U 25203L   26157.86047785  .00000140  00000+0  11372-3 0  9997
2 65575  81.3037  20.0956 0008629 216.3908 143.6664 13.85037729 37283
PRAETORIAN SDA_613      
1 65576U 25203M   26157.86066088  .00000048  00000+0  33273-4 0  9997
2 65576  81.3006  20.4729 0005044 213.8063 146.2772 13.82764291 37258
PRAETORIAN SDA_614      
1 65577U 25203N   26157.84771176  .00000069  00000+0  50739-4 0  9996
2 65577  81.3020  20.1826 0006507 213.3337 146.7411 13.84777737 37283
PRAETORIAN SDA_615      
1 65578U 25203P   26157.67750357  .00000138  00000+0  11289-3 0  9999
2 65578  81.3032  20.2980 0008424 215.5638 144.4958 13.84435227 37250
PRAETORIAN SDA_616      
1 65579U 25203Q   26157.85688040  .00000177  00000+0  15019-3 0  9997
2 65579  81.3070  20.6256 0004802 223.5468 136.5309 13.83266502 37258
PRAETORIAN SDA_617      
1 65580U 25203R   26157.66059099  .00000076  00000+0  58460-4 0  9990
2 65580  81.3044  20.6392 0006738 214.0869 145.9855 13.83149989 37239
PRAETORIAN SDA_618      
1 65581U 25203S   26157.86209934  .00000123  00000+0  98503-4 0  9993
2 65581  81.3029  20.0605 0009131 217.5224 142.5297 13.84668238 37289
PRAETORIAN SDA_619      
1 65582U 25203T   26157.67469499  .00000133  00000+0  10971-3 0  9990
2 65582  81.3053  20.5145 0007556 215.7786 144.2865 13.83804926 37873
PRAETORIAN SDA_620      
1 65583U 25203U   26157.62894729  .00000150  00000+0  12497-3 0  9998
2 65583  81.3039  20.5764 0007056 210.9775 149.0966 13.83617097 37231
PRAETORIAN SDA_621      
1 65584U 25203V   26157.67643506  .00000089  00000+0  69418-4 0  9996
2 65584  81.3027  20.4543 0006826 208.4031 151.6754 13.83800553 37240
PRAETORIAN SDA_601      
1 65585U 25203W   26157.64225419  .00003545  00000+0  32255-2 0  9990
2 65585  81.3051  20.7741 0005032 223.3691 136.7070 13.83170564 37222
